NORAD_CAT_ID,OBJECT_NAME,OBJECT_TYPE,EPOCH,MEAN_MOTION,ECCENTRICITY,INCLINATION,RA_OF_ASC_NODE,ARG_OF_PERICENTER,MEAN_ANOMALY,BSTAR,MEAN_MOTION_DOT,MEAN_MOTION_DDOT,TLE_LINE0,TLE_LINE1,TLE_LINE2,SEMIMAJOR_AXIS,PERIOD,APOGEE,PERIGEE,DECAYED
49432.0,STARLINK-3158,PAYLOAD,2022-04-07 22:00:00,15.08837004,0.0002005,53.2158,166.6082,34.1343,308.2909,-0.00087542,-0.00014193,0.0,0 STARLINK-3158,1 49432U 21104AA  22097.91667824 -.00014193  00000-0 -87542-3 0  9992,2 49432  53.2158 166.6082 0002005  34.1343 308.2909 15.08837004  3608,6917.89,95.438,541.1419999999998,538.368,0.0
49432.0,STARLINK-3158,PAYLOAD,2022-04-08 06:00:00,15.08851508,0.0001978,53.2161,165.1115,36.6679,317.3424,0.00056179,8.667e-05,0.0,0 STARLINK-3158,1 49432U 21104AA  22098.25001157  .00008667  00000-0  56179-3 0  9990,2 49432  53.2161 165.1115 0001978  36.6679 317.3424 15.08851508 23756,6917.845,95.437,541.0790000000002,538.342,0.0
49432.0,STARLINK-3158,PAYLOAD,2022-04-08 14:00:03,15.08843855,0.0002182,53.2162,163.6168,32.3286,333.4171,0.0013445,0.00021177,0.0,0 STARLINK-3158,1 49432U 21104AA  22098.58336806  .00021177  00000-0  13445-2 0  9997,2 49432  53.2162 163.6168 0002182  32.3286 333.4171 15.08843855  3610,6917.869000000002,95.437,541.243,538.224,0.0
49432.0,STARLINK-3158,PAYLOAD,2022-04-08 22:00:00,15.08842346,0.0002017,53.2163,162.1188,32.8861,344.3505,-0.0002889,-4.884e-05,0.0,0 STARLINK-3158,1 49432U 21104AA  22098.91667824 -.00004884  00000-0 -28890-3 0  9990,2 49432  53.2163 162.1188 0002017  32.8861 344.3505 15.08842346  3580,6917.873000000001,95.437,541.134,538.3430000000002,0.0
49432.0,STARLINK-3158,PAYLOAD,2022-04-09 06:00:00,15.08850406,0.0002041,53.2167,160.6225,35.8819,352.9379,-0.0022594,-0.00036078,0.0,0 STARLINK-3158,1 49432U 21104AA  22099.25001157 -.00036078  00000-0 -22594-2 0  9993,2 49432  53.2167 160.6225 0002041  35.8819 352.9379 15.08850406 23911,6917.849,95.437,541.126,538.302,0.0
49432.0,STARLINK-3158,PAYLOAD,2022-04-09 14:00:01,15.08801776,0.0002274,53.2167,159.1277,33.499,6.9139,0.0032029,0.00051003,0.0,0 STARLINK-3158,1 49432U 21104AA  22099.58334491  .00051003  00000-0  32029-2 0  9996,2 49432  53.2167 159.1277 0002274  33.4990   6.9139 15.08801776  3603,6917.996999999999,95.44,541.435,538.289,0.0
49432.0,STARLINK-3158,PAYLOAD,2022-04-09 22:00:00,15.08837504,0.0002114,53.2169,157.6297,35.9051,16.0937,0.00098043,0.00015349,0.0,0 STARLINK-3158,1 49432U 21104AA  22099.91667824  .00015349  00000-0  98043-3 0  9994,2 49432  53.2169 157.6297 0002114  35.9051  16.0937 15.08837504 24012,6917.888000000001,95.438,541.215,538.2909999999998,0.0
49432.0,STARLINK-3158,PAYLOAD,2022-04-10 14:00:01,15.0885282,0.0002258,53.217,154.6387,31.8599,43.3516,-0.0008942,-0.00014497,0.0,0 STARLINK-3158,1 49432U 21104AA  22100.58334491 -.00014497  00000-0 -89420-3 0  9995,2 49432  53.2170 154.6387 0002258  31.8599  43.3516 15.08852820  3608,6917.840999999999,95.437,541.268,538.144,0.0
49432.0,STARLINK-3158,PAYLOAD,2022-04-10 22:00:00,15.08827357,0.0001992,53.2171,153.1406,31.8003,55.0394,0.0002159,3.148e-05,0.0,0 STARLINK-3158,1 49432U 21104AA  22100.91667824  .00003148  00000-0  21590-3 0  9994,2 49432  53.2171 153.1406 0001992  31.8003  55.0394 15.08827357 24164,6917.919,95.438,541.1619999999998,538.406,0.0
49432.0,STARLINK-3158,PAYLOAD,2022-04-11 14:00:01,15.08822402,0.000223,53.217,150.1498,30.2504,79.7475,0.0010395,0.00016287,0.0,0 STARLINK-3158,1 49432U 21104AA  22101.58334491  .00016287  00000-0  10395-2 0  9997,2 49432  53.2170 150.1498 0002230  30.2504  79.7475 15.08822402  3601,6917.934,95.439,541.342,538.256,0.0
49432.0,STARLINK-3158,PAYLOAD,2022-04-11 22:00:00,15.08804916,0.0002048,53.2169,148.6518,34.9366,86.6468,0.0011912,0.00018703,0.0,0 STARLINK-3158,1 49432U 21104AA  22101.91667824  .00018703  00000-0  11912-2 0  9994,2 49432  53.2169 148.6518 0002048  34.9366  86.6468 15.08804916  3595,6917.988,95.44,541.269,538.436,0.0
49432.0,STARLINK-3158,PAYLOAD,2022-04-12 06:00:02,15.08835874,0.0002107,53.217,147.156,36.6542,96.5455,-0.0014438,-0.00023191,0.0,0 STARLINK-3158,1 49432U 21104AA  22102.25002315 -.00023191  00000-0 -14438-2 0  9995,2 49432  53.2170 147.1560 0002107  36.6542  96.5455 15.08835874 24360,6917.893,95.438,541.216,538.3,0.0
49432.0,STARLINK-3158,PAYLOAD,2022-04-12 14:00:01,15.08799831,0.0002283,53.2165,145.661,33.0143,111.702,0.0029561,0.00047021,0.0,0 STARLINK-3158,1 49432U 21104AA  22102.58334491  .00047021  00000-0  29561-2 0  9993,2 49432  53.2165 145.6610 0002283  33.0143 111.7020 15.08799831  3611,6918.003000000002,95.44,541.448,538.289,0.0
49432.0,STARLINK-3158,PAYLOAD,2022-04-12 22:00:00,15.0881126,0.0002078,53.2164,144.16299999999995,36.3783,119.9119,0.0018596,0.00029409,0.0,0 STARLINK-3158,1 49432U 21104AA  22102.91667824  .00029409  00000-0  18596-2 0  9995,2 49432  53.2164 144.1630 0002078  36.3783 119.9119 15.08811260  3568,6917.968000000003,95.439,541.271,538.396,0.0
49432.0,STARLINK-3158,PAYLOAD,2022-04-13 04:00:00,15.08840516,0.000211,53.2165,143.041,39.0937,35.8695,-0.00018017,-3.155e-05,0.0,0 STARLINK-3158,1 49432U 21104AA  22103.16667824 -.00003155  00000-0 -18017-3 0  9994,2 49432  53.2165 143.0410 0002110  39.0937  35.8695 15.08840516 24509,6917.879,95.438,541.203,538.284,0.0
49432.0,STARLINK-3158,PAYLOAD,2022-04-13 14:00:03,15.08819866,0.0002336,53.2159,141.1719,34.4276,145.1559,0.0028118,0.00044722,0.0,0 STARLINK-3158,1 49432U 21104AA  22103.58336806  .00044722  00000-0  28118-2 0  9998,2 49432  53.2159 141.1719 0002336  34.4276 145.1559 15.08819866  3569,6917.941999999999,95.439,541.423,538.191,0.0
49432.0,STARLINK-3158,PAYLOAD,2022-04-13 22:00:00,15.08826959,0.0002153,53.2158,139.6739,37.8945,153.1608,0.0023206,0.00036825,0.0,0 STARLINK-3158,1 49432U 21104AA  22103.91667824  .00036825  00000-0  23206-2 0  9990,2 49432  53.2158 139.6739 0002153  37.8945 153.1608 15.08826959  3610,6917.92,95.438,541.275,538.2959999999998,0.0
49432.0,STARLINK-3158,PAYLOAD,2022-04-14 06:00:00,15.08860776,0.0002254,53.2159,138.1784,38.9065,163.7351,-0.001634,-0.00026215,0.0,0 STARLINK-3158,1 49432U 21104AA  22104.25001157 -.00026215  00000-0 -16340-2 0  9994,2 49432  53.2159 138.1784 0002254  38.9065 163.7351 15.08860776 24667,6917.816999999999,95.436,541.241,538.123,0.0
49432.0,STARLINK-3158,PAYLOAD,2022-04-14 14:00:01,15.08846323,0.0002391,53.2155,136.6828,34.8569,179.3936,-0.00011727,-2.155e-05,0.0,0 STARLINK-3158,1 49432U 21104AA  22104.58334491 -.00002155  00000-0 -11727-3 0  9992,2 49432  53.2155 136.6828 0002391  34.8569 179.3936 15.08846323  3606,6917.861,95.437,541.38,538.072,0.0
49432.0,STARLINK-3158,PAYLOAD,2022-04-14 22:00:00,15.08815215,0.0002185,53.2155,135.1844,36.5686,189.3001,0.0021114,0.00033453,0.0,0 STARLINK-3158,1 49432U 21104AA  22104.91667824  .00033453  00000-0  21114-2 0  9991,2 49432  53.2155 135.1844 0002185  36.5686 189.3001 15.08815215  3608,6917.956,95.439,541.3330000000002,538.31,0.0
49432.0,STARLINK-3158,PAYLOAD,2022-04-15 06:00:00,15.08855239,0.0002313,53.2156,133.6889,37.6405,199.8114,-0.00098616,-0.00015956,0.0,0 STARLINK-3158,1 49432U 21104AA  22105.25001157 -.00015956  00000-0 -98616-3 0  9992,2 49432  53.2156 133.6889 0002313  37.6405 199.8114 15.08855239 24812,6917.834,95.437,541.299,538.099,0.0
49432.0,STARLINK-3158,PAYLOAD,2022-04-15 14:00:01,15.08842847,0.0002453,53.2154,132.1932,34.695,214.3635,0.0020126,0.00031891,0.0,0 STARLINK-3158,1 49432U 21104AA  22105.58334491  .00031891  00000-0  20126-2 0  9992,2 49432  53.2154 132.1932 0002453  34.6950 214.3635 15.08842847  3606,6917.871999999999,95.437,541.434,538.04,0.0
49432.0,STARLINK-3158,PAYLOAD,2022-04-15 22:00:00,15.08815691,0.0002316,53.2172,130.6815,38.1761,222.4935,0.0020909,0.00033124,0.0,0 STARLINK-3158,1 49432U 21104AA  22105.91667824  .00033124  00000-0  20909-2 0  9998,2 49432  53.2172 130.6815 0002316  38.1761 222.4935 15.08815691  3583,6917.955,95.439,541.422,538.217,0.0
49432.0,STARLINK-3158,PAYLOAD,2022-04-16 06:00:00,15.08849874,0.0002367,53.2157,129.1994,36.2207,236.053,-0.0017139,-0.0002747,0.0,0 STARLINK-3158,1 49432U 21104AA  22106.25001157 -.00027470  00000-0 -17139-2 0  9997,2 49432  53.2157 129.1994 0002367  36.2207 236.0530 15.08849874 24964,6917.85,95.437,541.3530000000002,538.078,0.0
49432.0,STARLINK-3158,PAYLOAD,2022-04-16 14:00:01,15.08833629,0.0002481,53.2155,127.7035,33.599000000000004,250.265,0.00083836,0.00013077,0.0,0 STARLINK-3158,1 49432U 21104AA  22106.58334491  .00013077  00000-0  83836-3 0  9997,2 49432  53.2155 127.7035 0002481  33.5990 250.2650 15.08833629  3608,6917.9,95.438,541.481,538.049,0.0
49432.0,STARLINK-3158,PAYLOAD,2022-04-16 22:00:01,15.08817537,0.0002293,53.2158,126.2051,37.3152,258.2119,0.0029284,0.00046598,0.0,0 STARLINK-3158,1 49432U 21104AA  22106.91668981  .00046598  00000-0  29284-2 0  9998,2 49432  53.2158 126.2051 0002293  37.3152 258.2119 15.08817537 25068,6917.949000000001,95.439,541.4,538.2280000000002,0.0
49432.0,STARLINK-3158,PAYLOAD,2022-04-17 14:00:01,15.08860456,0.0002515,53.2157,123.2137,34.3874,284.2643,-0.0013331,-0.00021455,0.0,0 STARLINK-3158,1 49432U 21104AA  22107.58334491 -.00021455  00000-0 -13331-2 0  9991,2 49432  53.2157 123.2137 0002515  34.3874 284.2643 15.08860456 25164,6917.818,95.436,541.423,537.943,0.0
49432.0,STARLINK-3158,PAYLOAD,2022-04-17 22:00:00,15.08811311,0.0002292,53.2161,121.7156,37.8936,292.3805,0.0024607,0.00039061,0.0,0 STARLINK-3158,1 49432U 21104AA  22107.91667824  .00039061  00000-0  24607-2 0  9995,2 49432  53.2161 121.7156 0002292  37.8936 292.3805 15.08811311  3568,6917.968000000003,95.439,541.419,538.247,0.0
49432.0,STARLINK-3158,PAYLOAD,2022-04-18 14:00:01,15.08841399,0.0002504,53.216,118.7243,34.4046,319.0281,-0.00041574,-6.899e-05,0.0,0 STARLINK-3158,1 49432U 21104AA  22108.58334491 -.00006899  00000-0 -41574-3 0  9998,2 49432  53.2160 118.7243 0002504  34.4046 319.0281 15.08841399  3598,6917.876,95.437,541.4730000000002,538.009,0.0
